{"type": "FeatureCollection", "features": [ {"type": "Feature", "properties": {"norad_id": 41785, "name": "ALSAT 1B", "group": "resource", "lat": -21.22167034498149, "lon": -171.40768280225709, "alt_km": 665.1734714761842, "timestamp": "2025-12-26T10:30:49.916803+00:00", "meta": {"OBJECT_NAME": "ALSAT 1B", "OBJECT_ID": "2016-059C", "EPOCH": "2025-12-26T04:42:32.714208", "MEAN_MOTION": 14.72088239, "ECCENTRICITY": 0.001072, "INCLINATION": 97.781, "RA_OF_ASC_NODE": 11.4045, "ARG_OF_PERICENTER": 65.7505, "MEAN_ANOMALY": 294.4822, "EPHEMERIS_TYPE": 0, "CLASSIFICATION_TYPE": "U", "NORAD_CAT_ID": 41785, "ELEMENT_SET_NO": 999, "REV_AT_EPOCH": 49512, "BSTAR": 4.9791e-05, "MEAN_MOTION_DOT": 2.66e-06, "MEAN_MOTION_DDOT": 0}, "tle": {"line1": "1 41785U 16059C   25360.19621197  .00000266  00000+0  49791-4 0  9995", "line2": "2 41785  97.7810  11.4045 0010720  65.7505 294.4822 14.72088239495128"}}, "geometry": {"type": "Point", "coordinates": [-171.40768280225709, -21.22167034498149]}}, {"type": "Feature", "properties": {"norad_id": 41787, "name": "PATHFINDER 1", "group": "resource", "lat": 45.378639049914526, "lon": -5.422537078470927, "alt_km": 644.969021808337, "timestamp": "2025-12-26T10:30:49.916813+00:00", "meta": {"OBJECT_NAME": "PATHFINDER 1", "OBJECT_ID": "2016-059E", "EPOCH": "2025-12-26T00:29:12.768288", "MEAN_MOTION": 14.67343776, "ECCENTRICITY": 0.0029554, "INCLINATION": 97.8139, "RA_OF_ASC_NODE": 2.1776, "ARG_OF_PERICENTER": 40.6195, "MEAN_ANOMALY": 319.7207, "EPHEMERIS_TYPE": 0, "CLASSIFICATION_TYPE": "U", "NORAD_CAT_ID": 41787, "ELEMENT_SET_NO": 999, "REV_AT_EPOCH": 49431, "BSTAR": 0.000151, "MEAN_MOTION_DOT": 8.11e-06, "MEAN_MOTION_DDOT": 0}, "tle": {"line1": "1 41787U 16059E   25360.02028667  .00000811  00000+0  15100-3 0  9994", "line2": "2 41787  97.8139   2.1776 0029554  40.6195 319.7207 14.67343776494317"}}, "geometry": {"type": "Point", "coordinates": [-5.422537078470927, 45.378639049914526]}}, {"type": "Feature", "properties": {"norad_id": 41790, "name": "SCATSAT 1", "group": "resource", "lat": -69.96452487324828, "lon": -145.8451364733023, "alt_km": 678.3314173018507, "timestamp": "2025-12-26T10:30:49.916823+00:00", "meta": {"OBJECT_NAME": "SCATSAT 1", "OBJECT_ID": "2016-059H", "EPOCH": "2025-12-26T02:53:17.988576", "MEAN_MOTION": 14.78978237, "ECCENTRICITY": 0.0056432, "INCLINATION": 98.1446, "RA_OF_ASC_NODE": 56.9567, "ARG_OF_PERICENTER": 85.8593, "MEAN_ANOMALY": 274.9065, "EPHEMERIS_TYPE": 0, "CLASSIFICATION_TYPE": "U", "NORAD_CAT_ID": 41790, "ELEMENT_SET_NO": 999, "REV_AT_EPOCH": 7600, "BSTAR": 0.00019672, "MEAN_MOTION_DOT": 1.435e-05, "MEAN_MOTION_DDOT": 0}, "tle": {"line1": "1 41790U 16059H   25360.12034709  .00001435  00000+0  19672-3 0  9994", "line2": "2 41790  98.1446  56.9567 0056432  85.8593 274.9065 14.78978237 76003"}}, "geometry": {"type": "Point", "coordinates": [-145.8451364733023, -69.96452487324828]}}, {"type": "Feature", "properties": {"norad_id": 41875, "name": "GOKTURK 1A", "group": "resource", "lat": -76.89943277503862, "lon": 34.653440868555954, "alt_km": 692.3952262878756, "timestamp": "2025-12-26T10:30:49.916833+00:00", "meta": {"OBJECT_NAME": "GOKTURK 1A", "OBJECT_ID": "2016-073A", "EPOCH": "2025-12-26T04:24:18.947232", "MEAN_MOTION": 14.62795998, "ECCENTRICITY": 0.0001287, "INCLINATION": 98.1424, "RA_OF_ASC_NODE": 252.3698, "ARG_OF_PERICENTER": 82.118, "MEAN_ANOMALY": 278.0167, "EPHEMERIS_TYPE": 0, "CLASSIFICATION_TYPE": "U", "NORAD_CAT_ID": 41875, "ELEMENT_SET_NO": 999, "REV_AT_EPOCH": 48353, "BSTAR": 0.00017188, "MEAN_MOTION_DOT": 8.3e-06, "MEAN_MOTION_DDOT": 0}, "tle": {"line1": "1 41875U 16073A   25360.18355263  .00000830  00000+0  17188-3 0  9999", "line2": "2 41875  98.1424 252.3698 0001287  82.1180 278.0167 14.62795998483532"}}, "geometry": {"type": "Point", "coordinates": [34.653440868555954, -76.89943277503862]}}, {"type": "Feature", "properties": {"norad_id": 41877, "name": "RESOURCESAT-2A", "group": "resource", "lat": 77.46752217181631, "lon": 26.20661050729717, "alt_km": 813.1518568304973, "timestamp": "2025-12-26T10:30:49.916844+00:00", "meta": {"OBJECT_NAME": "RESOURCESAT-2A", "OBJECT_ID": "2016-074A", "EPOCH": "2025-12-26T03:22:38.386848", "MEAN_MOTION": 14.21604411, "ECCENTRICITY": 0.0001657, "INCLINATION": 98.7735, "RA_OF_ASC_NODE": 69.9175, "ARG_OF_PERICENTER": 197.6867, "MEAN_ANOMALY": 162.4253, "EPHEMERIS_TYPE": 0, "CLASSIFICATION_TYPE": "U", "NORAD_CAT_ID": 41877, "ELEMENT_SET_NO": 999, "REV_AT_EPOCH": 46971, "BSTAR": -6.0316e-05, "MEAN_MOTION_DOT": -1.77e-06, "MEAN_MOTION_DDOT": 0}, "tle": {"line1": "1 41877U 16074A   25360.14072207 -.00000177  00000+0 -60316-4 0  9990", "line2": "2 41877  98.7735  69.9175 0001657 197.6867 162.4253 14.21604411469712"}}, "geometry": {"type": "Point", "coordinates": [26.20661050729717, 77.46752217181631]}}, {"type": "Feature", "properties": {"norad_id": 41948, "name": "CARTOSAT-2D", "group": "resource", "lat": -35.214580552456965, "lon": -127.56402690174401, "alt_km": 515.3019235509591, "timestamp": "2025-12-26T10:30:49.916853+00:00", "meta": {"OBJECT_NAME": "CARTOSAT-2D", "OBJECT_ID": "2017-008A", "EPOCH": "2025-12-26T04:49:35.356224", "MEAN_MOTION": 15.19196824, "ECCENTRICITY": 0.0005454, "INCLINATION": 97.4367, "RA_OF_ASC_NODE": 57.4924, "ARG_OF_PERICENTER": 115.537, "MEAN_ANOMALY": 244.6429, "EPHEMERIS_TYPE": 0, "CLASSIFICATION_TYPE": "U", "NORAD_CAT_ID": 41948, "ELEMENT_SET_NO": 999, "REV_AT_EPOCH": 49131, "BSTAR": 0.00016943, "MEAN_MOTION_DOT": 3.498e-05, "MEAN_MOTION_DDOT": 0}, "tle": {"line1": "1 41948U 17008A   25360.20110366  .00003498  00000+0  16943-3 0  9996", "line2": "2 41948  97.4367  57.4924 0005454 115.5370 244.6429 15.19196824491310"}}, "geometry": {"type": "Point", "coordinates": [-127.56402690174401, -35.214580552456965]}}, {"type": "Feature", "properties": {"norad_id": 42063, "name": "SENTINEL-2B", "group": "resource", "lat": 36.29192914183316, "lon": -100.95172219008019, "alt_km": 785.9417412892199, "timestamp": "2025-12-26T10:30:49.916863+00:00", "meta": {"OBJECT_NAME": "SENTINEL-2B", "OBJECT_ID": "2017-013A", "EPOCH": "2025-12-26T03:08:02.055840", "MEAN_MOTION": 14.30815669, "ECCENTRICITY": 0.0001171, "INCLINATION": 98.5696, "RA_OF_ASC_NODE": 72.3876, "ARG_OF_PERICENTER": 90.1678, "MEAN_ANOMALY": 269.9639, "EPHEMERIS_TYPE": 0, "CLASSIFICATION_TYPE": "U", "NORAD_CAT_ID": 42063, "ELEMENT_SET_NO": 999, "REV_AT_EPOCH": 45989, "BSTAR": 3.3853e-05, "MEAN_MOTION_DOT": 4.5e-07, "MEAN_MOTION_DDOT": 0}, "tle": {"line1": "1 42063U 17013A   25360.13057935  .00000045  00000+0  33853-4 0  9990", "line2": "2 42063  98.5696  72.3876 0001171  90.1678 269.9639 14.30815669459896"}}, "geometry": {"type": "Point", "coordinates": [-100.95172219008019, 36.29192914183316]}}, {"type": "Feature", "properties": {"norad_id": 42767, "name": "CARTOSAT-2E", "group": "resource", "lat": 54.58091499451259, "lon": -111.54733157236124, "alt_km": 501.8191255547936, "timestamp": "2025-12-26T10:30:49.916873+00:00", "meta": {"OBJECT_NAME": "CARTOSAT-2E", "OBJECT_ID": "2017-036C", "EPOCH": "2025-12-26T05:13:28.536096", "MEAN_MOTION": 15.19204925, "ECCENTRICITY": 0.0002687, "INCLINATION": 97.4536, "RA_OF_ASC_NODE": 57.627, "ARG_OF_PERICENTER": 171.3626, "MEAN_ANOMALY": 188.7655, "EPHEMERIS_TYPE": 0, "CLASSIFICATION_TYPE": "U", "NORAD_CAT_ID": 42767, "ELEMENT_SET_NO": 999, "REV_AT_EPOCH": 47188, "BSTAR": 0.00023548, "MEAN_MOTION_DOT": 4.889e-05, "MEAN_MOTION_DDOT": 0}, "tle": {"line1": "1 42767U 17036C   25360.21769139  .00004889  00000+0  23548-3 0  9990", "line2": "2 42767  97.4536  57.6270 0002687 171.3626 188.7655 15.19204925471884"}}, "geometry": {"type": "Point", "coordinates": [-111.54733157236124, 54.58091499451259]}}, {"type": "Feature", "properties": {"norad_id": 42920, "name": "FORMOSAT-5", "group": "resource", "lat": 49.73350719715348, "lon": 64.62586142675488, "alt_km": 724.9835777664748, "timestamp": "2025-12-26T10:30:49.916884+00:00", "meta": {"OBJECT_NAME": "FORMOSAT-5", "OBJECT_ID": "2017-049A", "EPOCH": "2025-12-26T03:39:38.810592", "MEAN_MOTION": 14.50768092, "ECCENTRICITY": 0.0009852, "INCLINATION": 98.2437, "RA_OF_ASC_NODE": 74.201, "ARG_OF_PERICENTER": 255.5626, "MEAN_ANOMALY": 104.4476, "EPHEMERIS_TYPE": 0, "CLASSIFICATION_TYPE": "U", "NORAD_CAT_ID": 42920, "ELEMENT_SET_NO": 999, "REV_AT_EPOCH": 44158, "BSTAR": 6.9638e-05, "MEAN_MOTION_DOT": 2.3e-06, "MEAN_MOTION_DDOT": 0}, "tle": {"line1": "1 42920U 17049A   25360.15253253  .00000230  00000+0  69638-4 0  9990", "line2": "2 42920  98.2437  74.2010 0009852 255.5626 104.4476 14.50768092441581"}}, "geometry": {"type": "Point", "coordinates": [64.62586142675488, 49.73350719715348]}}, {"type": "Feature", "properties": {"norad_id": 42969, "name": "SENTINEL-5P", "group": "resource", "lat": -15.318546902517408, "lon": -58.671963657886785, "alt_km": 831.8389554209252, "timestamp": "2025-12-26T10:30:49.916894+00:00", "meta": {"OBJECT_NAME": "SENTINEL-5P", "OBJECT_ID": "2017-064A", "EPOCH": "2025-12-25T17:40:12.396576", "MEAN_MOTION": 14.19520693, "ECCENTRICITY": 0.00010643, "INCLINATION": 98.7802, "RA_OF_ASC_NODE": 298.2061, "ARG_OF_PERICENTER": 90.9871, "MEAN_ANOMALY": 269.1427, "EPHEMERIS_TYPE": 0, "CLASSIFICATION_TYPE": "U", "NORAD_CAT_ID": 42969, "ELEMENT_SET_NO": 999, "REV_AT_EPOCH": 42495, "BSTAR": 6.8608624e-05, "MEAN_MOTION_DOT": 1e-06, "MEAN_MOTION_DDOT": 0}, "tle": {"line1": "1 42969U 17064A   25359.73625459  .00000100  00000+0  68609-4 0  9996", "line2": "2 42969  98.7802 298.2061 0001064  90.9871 269.1427 14.19520693424954"}}, "geometry": {"type": "Point", "coordinates": [-58.671963657886785, -15.318546902517408]}}]}